start=new Date('2022-03-27T00:00:00.000Z').valueOf();
sats=[{"BSTAR":"0.00001704200000","FILE":"3375650","EPHEMERIS_TYPE":"0","SEMIMAJOR_AXIS":"6717.653","MEAN_ANOMALY":"79.9301","OBJECT_TYPE":"PAYLOAD","APOAPSIS":"345.721","PERIAPSIS":"333.315","TLE_LINE2":"2 47365  53.0364 242.2810 0009234 280.0677  79.9301 15.76799410 67950","OBJECT_ID":"2021-005S","LAUNCH_DATE":"2021-01-20","TIME_SYSTEM":"UTC","CLASSIFICATION_TYPE":"U","COUNTRY_CODE":"US","ECCENTRICITY":"0.00092340","MEAN_ELEMENT_THEORY":"SGP4","ELEMENT_SET_NO":"999","MEAN_MOTION":"15.76799410","REF_FRAME":"TEME","SITE":"AFETR","INCLINATION":"53.0364","MEAN_MOTION_DDOT":"0.0000000000000","GP_ID":"199778988","EPOCH":"2022-03-26T20:42:15.710976","OBJECT_NAME":"STARLINK-2080","PERIOD":"91.324","RA_OF_ASC_NODE":"242.2810","MEAN_MOTION_DOT":"0.00002135","DECAY_DATE":null,"REV_AT_EPOCH":"6795","NORAD_CAT_ID":"47365","RCS_SIZE":"LARGE","CENTER_NAME":"EARTH","ARG_OF_PERICENTER":"280.0677","TLE_LINE1":"1 47365U 21005S   22085.86268184  .00002135  00000-0  17042-4 0  9992"},{"SEMIMAJOR_AXIS":"6925.345","EPHEMERIS_TYPE":"0","FILE":"3375254","BSTAR":"0.00014637000000","MEAN_ANOMALY":"304.3279","APOAPSIS":"548.557","PERIAPSIS":"545.863","OBJECT_TYPE":"PAYLOAD","OBJECT_ID":"2021-005T","LAUNCH_DATE":"2021-01-20","TLE_LINE2":"2 47366  53.0549  65.4825 0001945  55.7894 304.3279 15.06401121 65348","COUNTRY_CODE":"US","TIME_SYSTEM":"UTC","CLASSIFICATION_TYPE":"U","ELEMENT_SET_NO":"999","MEAN_ELEMENT_THEORY":"SGP4","ECCENTRICITY":"0.00019450","MEAN_MOTION":"15.06401121","MEAN_MOTION_DDOT":"0.0000000000000","OBJECT_NAME":"STARLINK-2081","GP_ID":"199746294","EPOCH":"2022-03-26T08:34:20.893728","INCLINATION":"53.0549","REF_FRAME":"TEME","SITE":"AFETR","CENTER_NAME":"EARTH","RCS_SIZE":"LARGE","TLE_LINE1":"1 47366U 21005T   22085.35718627  .00001899  00000-0  14637-3 0  9991","ARG_OF_PERICENTER":"55.7894","DECAY_DATE":null,"REV_AT_EPOCH":"6534","PERIOD":"95.592","MEAN_MOTION_DOT":"0.00001899","RA_OF_ASC_NODE":"65.4825","NORAD_CAT_ID":"47366"},{"INCLINATION":"53.0555","SITE":"AFETR","REF_FRAME":"TEME","OBJECT_NAME":"STARLINK-2082","EPOCH":"2022-03-26T07:35:59.248608","GP_ID":"199746044","MEAN_MOTION_DDOT":"0.0000000000000","NORAD_CAT_ID":"47367","REV_AT_EPOCH":"6534","DECAY_DATE":null,"PERIOD":"95.592","MEAN_MOTION_DOT":"-0.00000451","RA_OF_ASC_NODE":"65.6739","TLE_LINE1":"1 47367U 21005U   22085.31665797 -.00000451  00000-0 -11370-4 0  9994","ARG_OF_PERICENTER":"53.1386","CENTER_NAME":"EARTH","RCS_SIZE":"LARGE","MEAN_ELEMENT_THEORY":"SGP4","ECCENTRICITY":"0.00017400","ELEMENT_SET_NO":"999","MEAN_MOTION":"15.06394733","LAUNCH_DATE":"2021-01-20","OBJECT_ID":"2021-005U","TLE_LINE2":"2 47367  53.0555  65.6739 0001740  53.1386 306.9762 15.06394733 65348","CLASSIFICATION_TYPE":"U","TIME_SYSTEM":"UTC","COUNTRY_CODE":"US","FILE":"3375254","BSTAR":"-0.00001137000000","SEMIMAJOR_AXIS":"6925.365","EPHEMERIS_TYPE":"0","PERIAPSIS":"546.025","APOAPSIS":"548.435","OBJECT_TYPE":"PAYLOAD","MEAN_ANOMALY":"306.9762"},{"NORAD_CAT_ID":"47368","PERIOD":"95.592","MEAN_MOTION_DOT":"0.00000605","RA_OF_ASC_NODE":"63.3037","REV_AT_EPOCH":"6542","DECAY_DATE":null,"ARG_OF_PERICENTER":"62.8999","TLE_LINE1":"1 47368U 21005V   22085.84004859  .00000605  00000-0  59534-4 0  9992","RCS_SIZE":"LARGE","CENTER_NAME":"EARTH","REF_FRAME":"TEME","SITE":"AFETR","INCLINATION":"53.0540","GP_ID":"199778738","EPOCH":"2022-03-26T20:09:40.198176","OBJECT_NAME":"STARLINK-2084","MEAN_MOTION_DDOT":"0.0000000000000","MEAN_MOTION":"15.06396899","ECCENTRICITY":"0.00015790","MEAN_ELEMENT_THEORY":"SGP4","ELEMENT_SET_NO":"999","CLASSIFICATION_TYPE":"U","TIME_SYSTEM":"UTC","COUNTRY_CODE":"US","TLE_LINE2":"2 47368  53.0540  63.3037 0001579  62.8999 297.2151 15.06396899 65424","OBJECT_ID":"2021-005V","LAUNCH_DATE":"2021-01-20","OBJECT_TYPE":"PAYLOAD","APOAPSIS":"548.317","PERIAPSIS":"546.130","MEAN_ANOMALY":"297.2151","FILE":"3375650","BSTAR":"0.00005953400000","EPHEMERIS_TYPE":"0","SEMIMAJOR_AXIS":"6925.358"},{"OBJECT_TYPE":"PAYLOAD","PERIAPSIS":"546.026","APOAPSIS":"548.398","MEAN_ANOMALY":"309.5518","FILE":"3375650","BSTAR":"0.00001776700000","EPHEMERIS_TYPE":"0","SEMIMAJOR_AXIS":"6925.347","CLASSIFICATION_TYPE":"U","TIME_SYSTEM":"UTC","COUNTRY_CODE":"US","TLE_LINE2":"2 47369  53.0565  44.4899 0001712  50.5623 309.5518 15.06400522 65664","OBJECT_ID":"2021-005W","LAUNCH_DATE":"2021-01-20","MEAN_MOTION":"15.06400522","MEAN_ELEMENT_THEORY":"SGP4","ECCENTRICITY":"0.00017120","ELEMENT_SET_NO":"999","NORAD_CAT_ID":"47369","RA_OF_ASC_NODE":"44.4899","PERIOD":"95.592","MEAN_MOTION_DOT":"-0.00000017","DECAY_DATE":null,"REV_AT_EPOCH":"6566","ARG_OF_PERICENTER":"50.5623","TLE_LINE1":"1 47369U 21005W   22085.58018323 -.00000017  00000-0  17767-4 0  9995","RCS_SIZE":"LARGE","CENTER_NAME":"EARTH","SITE":"AFETR","REF_FRAME":"TEME","INCLINATION":"53.0565","EPOCH":"2022-03-26T13:55:27.831072","GP_ID":"199779489","OBJECT_NAME":"STARLINK-2085","MEAN_MOTION_DDOT":"0.0000000000000"},{"INCLINATION":"53.0544","SITE":"AFETR","REF_FRAME":"TEME","MEAN_MOTION_DDOT":"0.0000000000000","OBJECT_NAME":"STARLINK-2086","EPOCH":"2022-03-26T19:16:35.890752","GP_ID":"199779740","REV_AT_EPOCH":"6598","DECAY_DATE":null,"PERIOD":"95.592","RA_OF_ASC_NODE":"23.4833","MEAN_MOTION_DOT":"0.00003925","NORAD_CAT_ID":"47370","CENTER_NAME":"EARTH","RCS_SIZE":"LARGE","TLE_LINE1":"1 47370U 21005X   22085.80319318  .00003925  00000-0  28226-3 0  9991","ARG_OF_PERICENTER":"48.9503","ECCENTRICITY":"0.00021350","MEAN_ELEMENT_THEORY":"SGP4","ELEMENT_SET_NO":"999","MEAN_MOTION":"15.06396977","OBJECT_ID":"2021-005X","LAUNCH_DATE":"2021-01-20","TLE_LINE2":"2 47370  53.0544  23.4833 0002135  48.9503 311.1671 15.06396977 65988","TIME_SYSTEM":"UTC","CLASSIFICATION_TYPE":"U","COUNTRY_CODE":"US","BSTAR":"0.00028226000000","FILE":"3375650","SEMIMAJOR_AXIS":"6925.358","EPHEMERIS_TYPE":"0","MEAN_ANOMALY":"311.1671","PERIAPSIS":"545.744","APOAPSIS":"548.701","OBJECT_TYPE":"PAYLOAD"},{"INCLINATION":"53.0545","REF_FRAME":"TEME","SITE":"AFETR","MEAN_MOTION_DDOT":"0.0000000000000","OBJECT_NAME":"STARLINK-2088","GP_ID":"199780491","EPOCH":"2022-03-26T15:44:16.686816","DECAY_DATE":null,"REV_AT_EPOCH":"6539","RA_OF_ASC_NODE":"64.1386","PERIOD":"95.592","MEAN_MOTION_DOT":"0.00004189","NORAD_CAT_ID":"47371","CENTER_NAME":"EARTH","RCS_SIZE":"LARGE","TLE_LINE1":"1 47371U 21005Y   22085.65574869  .00004189  00000-0  29988-3 0  9998","ARG_OF_PERICENTER":"59.4873","MEAN_ELEMENT_THEORY":"SGP4","ECCENTRICITY":"0.00018900","ELEMENT_SET_NO":"999","MEAN_MOTION":"15.06406892","LAUNCH_DATE":"2021-01-20","OBJECT_ID":"2021-005Y","TLE_LINE2":"2 47371  53.0545  64.1386 0001890  59.4873 300.6302 15.06406892 65396","TIME_SYSTEM":"UTC","CLASSIFICATION_TYPE":"U","COUNTRY_CODE":"US","FILE":"3375650","BSTAR":"0.00029988000000","SEMIMAJOR_AXIS":"6925.327","EPHEMERIS_TYPE":"0","MEAN_ANOMALY":"300.6302","PERIAPSIS":"545.884","APOAPSIS":"548.501","OBJECT_TYPE":"PAYLOAD"},{"MEAN_MOTION":"15.06400102","ECCENTRICITY":"0.00017520","MEAN_ELEMENT_THEORY":"SGP4","ELEMENT_SET_NO":"999","NORAD_CAT_ID":"47372","PERIOD":"95.592","MEAN_MOTION_DOT":"0.00000492","RA_OF_ASC_NODE":"59.2873","DECAY_DATE":null,"REV_AT_EPOCH":"6545","ARG_OF_PERICENTER":"52.1769","TLE_LINE1":"1 47372U 21005Z   22085.62024619  .00000492  00000-0  51929-4 0  9993","RCS_SIZE":"LARGE","CENTER_NAME":"EARTH","SITE":"AFETR","REF_FRAME":"TEME","INCLINATION":"53.0560","GP_ID":"199779239","EPOCH":"2022-03-26T14:53:09.270816","OBJECT_NAME":"STARLINK-2089","MEAN_MOTION_DDOT":"0.0000000000000","OBJECT_TYPE":"PAYLOAD","APOAPSIS":"548.427","PERIAPSIS":"546.000","MEAN_ANOMALY":"307.9378","FILE":"3375650","BSTAR":"0.00005192900000","EPHEMERIS_TYPE":"0","SEMIMAJOR_AXIS":"6925.348","CLASSIFICATION_TYPE":"U","TIME_SYSTEM":"UTC","COUNTRY_CODE":"US","TLE_LINE2":"2 47372  53.0560  59.2873 0001752  52.1769 307.9378 15.06400102 65459","OBJECT_ID":"2021-005Z","LAUNCH_DATE":"2021-01-20"},{"EPOCH":"2022-03-26T15:38:57.980544","GP_ID":"199778989","OBJECT_NAME":"STARLINK-2092","MEAN_MOTION_DDOT":"0.0000000000000","SITE":"AFETR","REF_FRAME":"TEME","INCLINATION":"53.0553","ARG_OF_PERICENTER":"80.9104","TLE_LINE1":"1 47373U 21005AA  22085.65205996 -.00000769  00000-0 -32715-4 0  9997","RCS_SIZE":"LARGE","CENTER_NAME":"EARTH","NORAD_CAT_ID":"47373","PERIOD":"95.592","MEAN_MOTION_DOT":"-0.00000769","RA_OF_ASC_NODE":"64.1434","DECAY_DATE":null,"REV_AT_EPOCH":"6539","ELEMENT_SET_NO":"999","ECCENTRICITY":"0.00013280","MEAN_ELEMENT_THEORY":"SGP4","MEAN_MOTION":"15.06405839","TLE_LINE2":"2 47373  53.0553  64.1434 0001328  80.9104 279.2035 15.06405839 65397","LAUNCH_DATE":"2021-01-20","OBJECT_ID":"2021-005AA","COUNTRY_CODE":"US","CLASSIFICATION_TYPE":"U","TIME_SYSTEM":"UTC","EPHEMERIS_TYPE":"0","SEMIMAJOR_AXIS":"6925.331","FILE":"3375650","BSTAR":"-0.00003271500000","OBJECT_TYPE":"PAYLOAD","APOAPSIS":"548.115","PERIAPSIS":"546.276","MEAN_ANOMALY":"279.2035"},{"TIME_SYSTEM":"UTC","CLASSIFICATION_TYPE":"U","COUNTRY_CODE":"US","LAUNCH_DATE":"2021-01-20","OBJECT_ID":"2021-005AB","TLE_LINE2":"2 47374  53.0496  64.0769 0002062  58.6943 301.4248 15.06406636 65393","MEAN_ANOMALY":"301.4248","PERIAPSIS":"545.765","APOAPSIS":"548.621","OBJECT_TYPE":"PAYLOAD","FILE":"3375650","BSTAR":"0.00011513000000","SEMIMAJOR_AXIS":"6925.328","EPHEMERIS_TYPE":"0","DECAY_DATE":null,"REV_AT_EPOCH":"6539","RA_OF_ASC_NODE":"64.0769","PERIOD":"95.592","MEAN_MOTION_DOT":"0.00001434","NORAD_CAT_ID":"47374","CENTER_NAME":"EARTH","RCS_SIZE":"LARGE","TLE_LINE1":"1 47374U 21005AB  22085.67323145  .00001434  00000-0  11513-3 0  9997","ARG_OF_PERICENTER":"58.6943","INCLINATION":"53.0496","SITE":"AFETR","REF_FRAME":"TEME","MEAN_MOTION_DDOT":"0.0000000000000","OBJECT_NAME":"STARLINK-2093","EPOCH":"2022-03-26T16:09:27.197280","GP_ID":"199780241","MEAN_MOTION":"15.06406636","MEAN_ELEMENT_THEORY":"SGP4","ECCENTRICITY":"0.00020620","ELEMENT_SET_NO":"999"}];
